ORESAT0.5               
1 60525U 24149BK  26177.18429299  .00022583  00000+0  47347-3 0  9992
2 60525  97.3726 263.3235 0004581 231.4732 128.6107 15.45402518103866
DEIMOS                  
1 60526U 24149BL  26177.02717473  .00021923  00000+0  47371-3 0  9994
2 60526  97.3788 263.2997 0004440 240.1520 119.9287 15.44519858103817
CUAVA-2                 
1 60527U 24149BM  26176.68136399  .00014805  00000+0  42016-3 0  9990
2 60527  97.3731 258.2153 0005366 256.0022 104.0626 15.36298291103475
ERNST                   
1 60528U 24149BN  26177.01067924  .00015437  00000+0  39597-3 0  9998
2 60528  97.3815 260.7971 0004542 255.3128 104.7614 15.39424578103633
TORO                    
1 60530U 24149BQ  26177.13307154  .00001646  00000+0  15009-3 0  9995
2 60530  97.6781 251.6340 0001103  90.4044 269.7304 14.96450030101297
HYPSO-2                 
1 60531U 24149BR  26177.14673566  .00002948  00000+0  24928-3 0  9996
2 60531  97.6812 253.2759 0000879 126.8038 233.3266 14.98827200101395
LEMU NGE                
1 60532U 24149BS  26177.15413657  .00002486  00000+0  23257-3 0  9992
2 60532  97.6842 251.9325 0001609  58.5297 301.6081 14.94987633101299
LEMUR-2-STELLA          
1 60533U 24149BT  26177.01663578  .00012681  00000+0  74201-3 0  9990
2 60533  97.6742 259.5106 0001511  97.1382 263.0020 15.11984379101834
SATELIOT_2              
1 60534U 24149BU  26177.18745230  .00001356  00000+0  12472-3 0  9994
2 60534  97.6829 251.9797 0001787  83.5324 276.6101 14.96391621101310
NIGHTJAR                
1 60535U 24149BV  26176.66957136  .00003281  00000+0  27520-3 0  9996
2 60535  97.6832 253.2577 0000835 109.6387 250.4927 14.99055873144141
LEMUR-2-MARHISYAM       
1 60536U 24149BW  26177.19879850  .00011386  00000+0  67705-3 0  9996
2 60536  97.6882 260.1519 0003274 102.0033 258.1564 15.11425100101846
SATELIOT_4              
1 60537U 24149BX  26177.26330981  .00001540  00000+0  13992-3 0  9992
2 60537  97.6732 251.5753 0002364  38.2049 321.9340 14.96693878101337
PICO-02A021             
1 60538U 24149BY  26176.68641851  .00005970  00000+0  44409-3 0  9997
2 60538  97.6767 255.4450 0004360   8.5117 351.6182 15.03331863101018
ICEYE-X43               
1 60539U 24149BZ  26177.16985954  .00004312  00000+0  35414-3 0  9992
2 60539  97.6814 254.0121 0008147  58.7421 301.4599 14.99680350101460
HAWK-10A                
1 60540U 24149CA  26177.19610843  .00001159  00000+0  10697-3 0  9991
2 60540  97.6891 252.9529 0004353  55.4182 304.7450 14.96537683101334
UMBRA-09                
1 60541U 24149CB  26177.22908542  .00018953  00000+0  92569-3 0  9990
2 60541  97.6976 264.5902 0001009 238.4610 121.6525 15.18308117102093
QPS-SAR-8 (AMATERU-IV)  
1 60542U 24149CC  26177.17435877  .00006898  00000+0  50060-3 0  9996
2 60542  97.6660 256.2482 0004213  88.2896 271.8812 15.04213210101621
ARCTIC WEATHER SATELLITE
1 60543U 24149CD  26177.15379243  .00000858  00000+0  95019-4 0  9993
2 60543  97.6799 247.3632 0003662  87.1439 273.0198 14.89795586100635
CAPELLA-15 (ACADIA-5)   
1 60544U 24149CE  26177.23986583  .00003989  00000+0  39487-3 0  9998
2 60544  97.6775 249.9166 0004262  51.9780 308.1823 14.92402735101209
HAWK-10B                
1 60545U 24149CF  26177.19596540  .00001220  00000+0  11232-3 0  9998
2 60545  97.6810 252.2988 0006468  68.7155 291.4757 14.96536677101332
ICEYE-X39               
1 60546U 24149CG  26177.14978905  .00003681  00000+0  30104-3 0  9995
2 60546  97.6760 254.0509 0006259  95.6168 264.5769 14.99945998101468
UMBRA-10                
1 60547U 24149CH  26177.22864546  .00017952  00000+0  87730-3 0  9993
2 60547  97.6981 264.6181 0000390 150.1660 209.9596 15.18300409102108
ICEYE-X33               
1 60548U 24149CJ  26177.16934360  .00005152  00000+0  40893-3 0  9997
2 60548  97.7311 256.2617 0002007  80.9186 279.2265 15.00938302101559
ICEYE-X40               
1 60549U 24149CK  26177.18686631  .00001040  00000+0  93045-4 0  9995
2 60549  97.6814 253.5387 0005847  55.4807 304.6967 14.97967634101426
SATELIOT_1              
1 60550U 24149CL  26177.17725877  .00001724  00000+0  15049-3 0  9998
2 60550  97.6760 252.9265 0008026  53.1392 307.0565 14.98106776101415
BRO-14                  
1 60551U 24149CM  26177.15700830  .00001692  00000+0  15513-3 0  9999
2 60551  97.6874 252.7735 0008166  73.6483 286.5636 14.96196801101332
SATELIOT_3              
1 60552U 24149CN  26177.15315268  .00002400  00000+0  20768-3 0  9993
2 60552  97.6816 253.7010 0006128  66.5548 293.6318 14.98087156101425
BRO-15                  
1 60553U 24149CP  26176.67139281  .00002117  00000+0  19287-3 0  9998
2 60553  97.6810 251.8906 0009036  64.5966 295.6189 14.96176222101278
UM5-RIBAT               
1 60554U 24149CQ  26176.80460112  .00003418  00000+0  27156-3 0  9993
2 60554  97.6629 254.4884 0002900  48.2667 311.8805 15.01119626101482
UM5-EOSAT               
1 60555U 24149CR  26176.70168339  .00004525  00000+0  35330-3 0  9992
2 60555  97.6740 255.3383 0009072  89.4302 270.7962 15.01595589101495
